{
  "type": "FeatureCollection",
  "features": [
    {
      "type": "Feature",
      "properties": {
        "norad_id": 29994,
        "name": "FENGYUN 1C DEB",
        "group": "fengyun-1c-debris",
        "lat": -11.319075436560352,
        "lon": -153.65368686772544,
        "alt_km": 794.7824154170366,
        "timestamp": "2025-12-22T04:03:39.442099+00:00",
        "meta_object_name": "FENGYUN 1C DEB",
        "meta_object_id": "1999-025LU",
        "meta_epoch": "2025-12-21T15:42:22.167072",
        "meta_mean_motion": 14.02645188,
        "meta_eccentricity": 0.0129873,
        "meta_inclination": 98.827,
        "meta_ra_of_asc_node": 27.6297,
        "meta_arg_of_pericenter": 188.6734,
        "meta_mean_anomaly": 284.587,
        "meta_ephemeris_type": 0,
        "meta_classification_type": "U",
        "meta_norad_cat_id": 29994,
        "meta_element_set_no": 999,
        "meta_rev_at_epoch": 96851,
        "meta_bstar": -4.1239e-05,
        "meta_mean_motion_dot": -1.11e-06,
        "meta_mean_motion_ddot": 0,
        "tle_line1": "1 29994U 99025LU  25355.65442323 -.00000111  00000+0 -41239-4 0  9994",
        "tle_line2": "2 29994  98.8270  27.6297 0129873 188.6734 284.5870 14.02645188968511"
      },
      "geometry": {
        "type": "Point",
        "coordinates": [
          -153.65368686772544,
          -11.319075436560352
        ]
      }
    },
    {
      "type": "Feature",
      "properties": {
        "norad_id": 29996,
        "name": "FENGYUN 1C DEB",
        "group": "fengyun-1c-debris",
        "lat": -61.706693212214454,
        "lon": -163.87046401768666,
        "alt_km": 963.0177550244025,
        "timestamp": "2025-12-22T04:03:39.442109+00:00",
        "meta_object_name": "FENGYUN 1C DEB",
        "meta_object_id": "1999-025LW",
        "meta_epoch": "2025-12-21T13:59:53.912832",
        "meta_mean_motion": 14.09471293,
        "meta_eccentricity": 0.0130877,
        "meta_inclination": 99.3028,
        "meta_ra_of_asc_node": 33.2524,
        "meta_arg_of_pericenter": 63.2592,
        "meta_mean_anomaly": 88.3755,
        "meta_ephemeris_type": 0,
        "meta_classification_type": "U",
        "meta_norad_cat_id": 29996,
        "meta_element_set_no": 999,
        "meta_rev_at_epoch": 96261,
        "meta_bstar": 0.0014675,
        "meta_mean_motion_dot": 2.73e-05,
        "meta_mean_motion_ddot": 0,
        "tle_line1": "1 29996U 99025LW  25355.58326288  .00002730  00000+0  14675-2 0  9998",
        "tle_line2": "2 29996  99.3028  33.2524 0130877  63.2592  88.3755 14.09471293962610"
      },
      "geometry": {
        "type": "Point",
        "coordinates": [
          -163.87046401768666,
          -61.706693212214454
        ]
      }
    },
    {
      "type": "Feature",
      "properties": {
        "norad_id": 29997,
        "name": "FENGYUN 1C DEB",
        "group": "fengyun-1c-debris",
        "lat": -33.12766683148574,
        "lon": 12.213427468656535,
        "alt_km": 844.0278298137418,
        "timestamp": "2025-12-22T04:03:39.442120+00:00",
        "meta_object_name": "FENGYUN 1C DEB",
        "meta_object_id": "1999-025LX",
        "meta_epoch": "2025-12-21T00:53:44.522304",
        "meta_mean_motion": 14.00897427,
        "meta_eccentricity": 0.00801459,
        "meta_inclination": 98.8822,
        "meta_ra_of_asc_node": 5.2558,
        "meta_arg_of_pericenter": 304.2691,
        "meta_mean_anomaly": 76.6368,
        "meta_ephemeris_type": 0,
        "meta_classification_type": "U",
        "meta_norad_cat_id": 29997,
        "meta_element_set_no": 999,
        "meta_rev_at_epoch": 96506,
        "meta_bstar": 0.00066893207,
        "meta_mean_motion_dot": 9.85e-06,
        "meta_mean_motion_ddot": 0,
        "tle_line1": "1 29997U 99025LX  25355.03732086  .00000985  00000+0  66893-3 0  9996",
        "tle_line2": "2 29997  98.8822   5.2558 0080145 304.2691  76.6368 14.00897427965067"
      },
      "geometry": {
        "type": "Point",
        "coordinates": [
          12.213427468656535,
          -33.12766683148574
        ]
      }
    },
    {
      "type": "Feature",
      "properties": {
        "norad_id": 29998,
        "name": "FENGYUN 1C DEB",
        "group": "fengyun-1c-debris",
        "lat": 72.59912868141667,
        "lon": 25.641381317843987,
        "alt_km": 793.0541276783988,
        "timestamp": "2025-12-22T04:03:39.442130+00:00",
        "meta_object_name": "FENGYUN 1C DEB",
        "meta_object_id": "1999-025LY",
        "meta_epoch": "2025-12-21T15:56:36.244896",
        "meta_mean_motion": 14.2858064,
        "meta_eccentricity": 0.0005167,
        "meta_inclination": 99.3056,
        "meta_ra_of_asc_node": 56.6488,
        "meta_arg_of_pericenter": 270.3177,
        "meta_mean_anomaly": 89.741,
        "meta_ephemeris_type": 0,
        "meta_classification_type": "U",
        "meta_norad_cat_id": 29998,
        "meta_element_set_no": 999,
        "meta_rev_at_epoch": 98002,
        "meta_bstar": 0.00069308,
        "meta_mean_motion_dot": 1.69e-05,
        "meta_mean_motion_ddot": 0,
        "tle_line1": "1 29998U 99025LY  25355.66430839  .00001690  00000+0  69308-3 0  9995",
        "tle_line2": "2 29998  99.3056  56.6488 0005167 270.3177  89.7410 14.28580640980020"
      },
      "geometry": {
        "type": "Point",
        "coordinates": [
          25.641381317843987,
          72.59912868141667
        ]
      }
    },
    {
      "type": "Feature",
      "properties": {
        "norad_id": 29999,
        "name": "FENGYUN 1C DEB",
        "group": "fengyun-1c-debris",
        "lat": -80.57742067838547,
        "lon": 94.72437121707284,
        "alt_km": 965.1010357433634,
        "timestamp": "2025-12-22T04:03:39.442140+00:00",
        "meta_object_name": "FENGYUN 1C DEB",
        "meta_object_id": "1999-025LZ",
        "meta_epoch": "2025-12-21T17:31:56.211744",
        "meta_mean_motion": 14.20147184,
        "meta_eccentricity": 0.0189769,
        "meta_inclination": 98.5771,
        "meta_ra_of_asc_node": 339.7253,
        "meta_arg_of_pericenter": 100.652,
        "meta_mean_anomaly": 83.3573,
        "meta_ephemeris_type": 0,
        "meta_classification_type": "U",
        "meta_norad_cat_id": 29999,
        "meta_element_set_no": 999,
        "meta_rev_at_epoch": 97851,
        "meta_bstar": 0.00024578,
        "meta_mean_motion_dot": 5.85e-06,
        "meta_mean_motion_ddot": 0,
        "tle_line1": "1 29999U 99025LZ  25355.73051171  .00000585  00000+0  24578-3 0  9994",
        "tle_line2": "2 29999  98.5771 339.7253 0189769 100.6520  83.3573 14.20147184978514"
      },
      "geometry": {
        "type": "Point",
        "coordinates": [
          94.72437121707284,
          -80.57742067838547
        ]
      }
    },
    {
      "type": "Feature",
      "properties": {
        "norad_id": 30001,
        "name": "FENGYUN 1C DEB",
        "group": "fengyun-1c-debris",
        "lat": 57.384821204095466,
        "lon": -94.1006984557443,
        "alt_km": 740.6655652434738,
        "timestamp": "2025-12-22T04:03:39.442150+00:00",
        "meta_object_name": "FENGYUN 1C DEB",
        "meta_object_id": "1999-025MA",
        "meta_epoch": "2025-12-21T18:03:13.536000",
        "meta_mean_motion": 14.3870591,
        "meta_eccentricity": 0.0036559,
        "meta_inclination": 98.9593,
        "meta_ra_of_asc_node": 71.1916,
        "meta_arg_of_pericenter": 71.8095,
        "meta_mean_anomaly": 50.9136,
        "meta_ephemeris_type": 0,
        "meta_classification_type": "U",
        "meta_norad_cat_id": 30001,
        "meta_element_set_no": 999,
        "meta_rev_at_epoch": 97561,
        "meta_bstar": 0.0019349,
        "meta_mean_motion_dot": 5.94e-05,
        "meta_mean_motion_ddot": 0,
        "tle_line1": "1 30001U 99025MA  25355.75224000  .00005940  00000+0  19349-2 0  9994",
        "tle_line2": "2 30001  98.9593  71.1916 0036559  71.8095  50.9136 14.38705910975612"
      },
      "geometry": {
        "type": "Point",
        "coordinates": [
          -94.1006984557443,
          57.384821204095466
        ]
      }
    },
    {
      "type": "Feature",
      "properties": {
        "norad_id": 30003,
        "name": "FENGYUN 1C DEB",
        "group": "fengyun-1c-debris",
        "lat": -66.95893345051599,
        "lon": -5.436570423439002,
        "alt_km": 1052.0729488067745,
        "timestamp": "2025-12-22T04:03:39.442161+00:00",
        "meta_object_name": "FENGYUN 1C DEB",
        "meta_object_id": "1999-025MC",
        "meta_epoch": "2025-12-21T20:03:07.809120",
        "meta_mean_motion": 13.85631818,
        "meta_eccentricity": 0.0143621,
        "meta_inclination": 99.578,
        "meta_ra_of_asc_node": 330.8326,
        "meta_arg_of_pericenter": 95.8283,
        "meta_mean_anomaly": 332.0314,
        "meta_ephemeris_type": 0,
        "meta_classification_type": "U",
        "meta_norad_cat_id": 30003,
        "meta_element_set_no": 999,
        "meta_rev_at_epoch": 95614,
        "meta_bstar": 0.00031456,
        "meta_mean_motion_dot": 3.44e-06,
        "meta_mean_motion_ddot": 0,
        "tle_line1": "1 30003U 99025MC  25355.83550705  .00000344  00000+0  31456-3 0  9996",
        "tle_line2": "2 30003  99.5780 330.8326 0143621  95.8283 332.0314 13.85631818956148"
      },
      "geometry": {
        "type": "Point",
        "coordinates": [
          -5.436570423439002,
          -66.95893345051599
        ]
      }
    }
  ]
}